{
  "type": "FeatureCollection",
  "features": [
    {
      "type": "Feature",
      "properties": {
        "norad_id": 34874,
        "name": "COSMOS 2251 DEB",
        "group": "cosmos-2251-debris",
        "lat": -43.88388181308952,
        "lon": 57.85846049095817,
        "alt_km": 806.9134716083163,
        "timestamp": "2025-12-12T16:50:33.541835+00:00",
        "meta_object_name": "COSMOS 2251 DEB",
        "meta_object_id": "1993-036ACM",
        "meta_epoch": "2025-12-12T05:29:30.411744",
        "meta_mean_motion": 14.36307124,
        "meta_eccentricity": 0.00509679,
        "meta_inclination": 74.0398,
        "meta_ra_of_asc_node": 74.703,
        "meta_arg_of_pericenter": 100.1759,
        "meta_mean_anomaly": 289.5848,
        "meta_ephemeris_type": 0,
        "meta_classification_type": "U",
        "meta_norad_cat_id": 34874,
        "meta_element_set_no": 999,
        "meta_rev_at_epoch": 87037,
        "meta_bstar": 0.0013992098,
        "meta_mean_motion_dot": 4.128e-05,
        "meta_mean_motion_ddot": 0,
        "tle_line1": "1 34874U 93036ACM 25346.22882421  .00004128  00000+0  13992-2 0  9996",
        "tle_line2": "2 34874  74.0398  74.7030 0050967 100.1759 289.5848 14.36307124870370"
      },
      "geometry": {
        "type": "Point",
        "coordinates": [
          57.85846049095817,
          -43.88388181308952
        ]
      }
    },
    {
      "type": "Feature",
      "properties": {
        "norad_id": 34875,
        "name": "COSMOS 2251 DEB",
        "group": "cosmos-2251-debris",
        "lat": 5.165180989492302,
        "lon": 159.76794574916096,
        "alt_km": 729.7846884076671,
        "timestamp": "2025-12-12T16:50:33.541845+00:00",
        "meta_object_name": "COSMOS 2251 DEB",
        "meta_object_id": "1993-036ACN",
        "meta_epoch": "2025-12-12T06:02:41.048736",
        "meta_mean_motion": 14.48922447,
        "meta_eccentricity": 0.00161161,
        "meta_inclination": 74.0434,
        "meta_ra_of_asc_node": 159.1286,
        "meta_arg_of_pericenter": 282.8958,
        "meta_mean_anomaly": 256.5606,
        "meta_ephemeris_type": 0,
        "meta_classification_type": "U",
        "meta_norad_cat_id": 34875,
        "meta_element_set_no": 999,
        "meta_rev_at_epoch": 87748,
        "meta_bstar": 0.0007372953,
        "meta_mean_motion_dot": 2.77e-05,
        "meta_mean_motion_ddot": 0,
        "tle_line1": "1 34875U 93036ACN 25346.25186399  .00002770  00000+0  73730-3 0  9999",
        "tle_line2": "2 34875  74.0434 159.1286 0016116 282.8958 256.5606 14.48922447877489"
      },
      "geometry": {
        "type": "Point",
        "coordinates": [
          159.76794574916096,
          5.165180989492302
        ]
      }
    },
    {
      "type": "Feature",
      "properties": {
        "norad_id": 34878,
        "name": "COSMOS 2251 DEB",
        "group": "cosmos-2251-debris",
        "lat": 26.26085907459271,
        "lon": -140.77157191679402,
        "alt_km": 1252.0688503542588,
        "timestamp": "2025-12-12T16:50:33.541855+00:00",
        "meta_object_name": "COSMOS 2251 DEB",
        "meta_object_id": "1993-036ACR",
        "meta_epoch": "2025-12-09T11:24:21.665664",
        "meta_mean_motion": 13.44185831,
        "meta_eccentricity": 0.04353122,
        "meta_inclination": 73.9652,
        "meta_ra_of_asc_node": 52.502,
        "meta_arg_of_pericenter": 36.6708,
        "meta_mean_anomaly": 343.8238,
        "meta_ephemeris_type": 0,
        "meta_classification_type": "U",
        "meta_norad_cat_id": 34878,
        "meta_element_set_no": 999,
        "meta_rev_at_epoch": 81229,
        "meta_bstar": 0.00088072379,
        "meta_mean_motion_dot": 8.84e-06,
        "meta_mean_motion_ddot": 0,
        "tle_line1": "1 34878U 93036ACR 25343.47525076  .00000884  00000+0  88072-3 0  9991",
        "tle_line2": "2 34878  73.9652  52.5020 0435312  36.6708 343.8238 13.44185831812297"
      },
      "geometry": {
        "type": "Point",
        "coordinates": [
          -140.77157191679402,
          26.26085907459271
        ]
      }
    },
    {
      "type": "Feature",
      "properties": {
        "norad_id": 34882,
        "name": "COSMOS 2251 DEB",
        "group": "cosmos-2251-debris",
        "lat": -51.00006905358077,
        "lon": -155.02309414462314,
        "alt_km": 654.0423330115973,
        "timestamp": "2025-12-12T16:50:33.541866+00:00",
        "meta_object_name": "COSMOS 2251 DEB",
        "meta_object_id": "1993-036ACV",
        "meta_epoch": "2025-12-12T02:18:03.231072",
        "meta_mean_motion": 14.61595621,
        "meta_eccentricity": 0.00828406,
        "meta_inclination": 74.0462,
        "meta_ra_of_asc_node": 226.8217,
        "meta_arg_of_pericenter": 353.9491,
        "meta_mean_anomaly": 6.0665,
        "meta_ephemeris_type": 0,
        "meta_classification_type": "U",
        "meta_norad_cat_id": 34882,
        "meta_element_set_no": 999,
        "meta_rev_at_epoch": 88515,
        "meta_bstar": 0.00026377037,
        "meta_mean_motion_dot": 1.344e-05,
        "meta_mean_motion_ddot": 0,
        "tle_line1": "1 34882U 93036ACV 25346.09587073  .00001344  00000+0  26377-3 0  9994",
        "tle_line2": "2 34882  74.0462 226.8217 0082840 353.9491   6.0665 14.61595621885154"
      },
      "geometry": {
        "type": "Point",
        "coordinates": [
          -155.02309414462314,
          -51.00006905358077
        ]
      }
    },
    {
      "type": "Feature",
      "properties": {
        "norad_id": 34883,
        "name": "COSMOS 2251 DEB",
        "group": "cosmos-2251-debris",
        "lat": -3.318164665824258,
        "lon": 61.84731570652081,
        "alt_km": 744.917281673761,
        "timestamp": "2025-12-12T16:50:33.541877+00:00",
        "meta_object_name": "COSMOS 2251 DEB",
        "meta_object_id": "1993-036ACW",
        "meta_epoch": "2025-12-12T05:16:46.096608",
        "meta_mean_motion": 14.51477124,
        "meta_eccentricity": 0.00951451,
        "meta_inclination": 74.1989,
        "meta_ra_of_asc_node": 63.6857,
        "meta_arg_of_pericenter": 248.9733,
        "meta_mean_anomaly": 110.1233,
        "meta_ephemeris_type": 0,
        "meta_classification_type": "U",
        "meta_norad_cat_id": 34883,
        "meta_element_set_no": 999,
        "meta_rev_at_epoch": 86432,
        "meta_bstar": 0.0063651984,
        "meta_mean_motion_dot": 0.00027049,
        "meta_mean_motion_ddot": 0,
        "tle_line1": "1 34883U 93036ACW 25346.21997797  .00027049  00000+0  63652-2 0  9993",
        "tle_line2": "2 34883  74.1989  63.6857 0095145 248.9733 110.1233 14.51477124864321"
      },
      "geometry": {
        "type": "Point",
        "coordinates": [
          61.84731570652081,
          -3.318164665824258
        ]
      }
    },
    {
      "type": "Feature",
      "properties": {
        "norad_id": 34884,
        "name": "COSMOS 2251 DEB",
        "group": "cosmos-2251-debris",
        "lat": -68.75217509312732,
        "lon": 9.331394233608796,
        "alt_km": 606.1751300100395,
        "timestamp": "2025-12-12T16:50:33.541887+00:00",
        "meta_object_name": "COSMOS 2251 DEB",
        "meta_object_id": "1993-036ACX",
        "meta_epoch": "2025-12-12T06:09:07.951392",
        "meta_mean_motion": 14.90041008,
        "meta_eccentricity": 0.00023854,
        "meta_inclination": 74.017,
        "meta_ra_of_asc_node": 57.7102,
        "meta_arg_of_pericenter": 84.5238,
        "meta_mean_anomaly": 331.2957,
        "meta_ephemeris_type": 0,
        "meta_classification_type": "U",
        "meta_norad_cat_id": 34884,
        "meta_element_set_no": 999,
        "meta_rev_at_epoch": 87798,
        "meta_bstar": 0.0038138263,
        "meta_mean_motion_dot": 0.0003699,
        "meta_mean_motion_ddot": 0,
        "tle_line1": "1 34884U 93036ACX 25346.25634203  .00036990  00000+0  38138-2 0  9994",
        "tle_line2": "2 34884  74.0170  57.7102 0002385  84.5238 331.2957 14.90041008877984"
      },
      "geometry": {
        "type": "Point",
        "coordinates": [
          9.331394233608796,
          -68.75217509312732
        ]
      }
    },
    {
      "type": "Feature",
      "properties": {
        "norad_id": 34885,
        "name": "COSMOS 2251 DEB",
        "group": "cosmos-2251-debris",
        "lat": 4.408246836096396,
        "lon": 1.829106571080801,
        "alt_km": 723.3792245299055,
        "timestamp": "2025-12-12T16:50:33.541897+00:00",
        "meta_object_name": "COSMOS 2251 DEB",
        "meta_object_id": "1993-036ACY",
        "meta_epoch": "2025-12-11T22:23:14.497152",
        "meta_mean_motion": 14.51494583,
        "meta_eccentricity": 0.0015161,
        "meta_inclination": 74.031,
        "meta_ra_of_asc_node": 184.5413,
        "meta_arg_of_pericenter": 270.1747,
        "meta_mean_anomaly": 208.7652,
        "meta_ephemeris_type": 0,
        "meta_classification_type": "U",
        "meta_norad_cat_id": 34885,
        "meta_element_set_no": 999,
        "meta_rev_at_epoch": 87467,
        "meta_bstar": 0.0010029,
        "meta_mean_motion_dot": 3.989e-05,
        "meta_mean_motion_ddot": 0,
        "tle_line1": "1 34885U 93036ACY 25345.93280668  .00003989  00000+0  10029-2 0  9992",
        "tle_line2": "2 34885  74.0310 184.5413 0015161 270.1747 208.7652 14.51494583874679"
      },
      "geometry": {
        "type": "Point",
        "coordinates": [
          1.829106571080801,
          4.408246836096396
        ]
      }
    }
  ]
}